IRIDIUM 106             
1 41917U 17003A   26198.65410065  .00000066  00000+0  16619-4 0  9994
2 41917  86.3937  75.8164 0002309  93.4809 266.6651 14.34217566497571
IRIDIUM 103             
1 41918U 17003B   26198.57164571  .00000013  00000+0 -25547-5 0  9998
2 41918  86.3936  75.7505 0001889  83.9410 276.2001 14.34217616497586
IRIDIUM 109             
1 41919U 17003C   26198.57798867  .00000200  00000+0  64505-4 0  9993
2 41919  86.3941  75.8073 0002137  85.3964 274.7476 14.34217701497552
IRIDIUM 102             
1 41920U 17003D   26198.75557962  .00000119  00000+0  35511-4 0  9998
2 41920  86.3937  75.6566 0002224  84.8151 275.3299 14.34219016497666
IRIDIUM 105             
1 41921U 17003E   26198.50487236  .00000069  00000+0  17717-4 0  9990
2 41921  86.3942  44.1889 0002115  81.3447 278.7988 14.34217265499489
IRIDIUM 104             
1 41922U 17003F   26198.41942405  .00000081  00000+0  21748-4 0  9998
2 41922  86.3938  75.8401 0002006  80.3633 279.7789 14.34216891497607
IRIDIUM 114             
1 41923U 17003G   26198.63507308  .00000059  00000+0  14043-4 0  9997
2 41923  86.3939  75.7331 0002032  85.3537 274.7891 14.34217565497616
IRIDIUM 108             
1 41924U 17003H   26198.80289903  .00000031  00000+0  41170-5 0  9997
2 41924  86.3936  43.9523 0002230  86.2207 273.9244 14.34217663499498
IRIDIUM 112             
1 41925U 17003J   26198.41308181  .00000057  00000+0  13396-4 0  9991
2 41925  86.3934  75.6664 0002181  84.5648 275.5797 14.34216965497606
IRIDIUM 111             
1 41926U 17003K   26198.19109037  .00000074  00000+0  19346-4 0  9996
2 41926  86.3938  75.8308 0002165  86.2701 273.8742 14.34218100497557
IRIDIUM 113             
1 42803U 17039A   26198.79897183  .00000070  00000+0  17777-4 0  9994
2 42803  86.3992 309.3849 0002135  92.7705 267.3735 14.34217664475572
IRIDIUM 123             
1 42804U 17039B   26198.91021876  .00000012  00000+0 -28465-5 0  9991
2 42804  86.3990 340.7946 0002037  97.4874 262.6553 14.34217305474351
IRIDIUM 120             
1 42805U 17039C   26198.86239839  .00000046  00000+0  95244-5 0  9991
2 42805  86.3980 309.1368 0002380  97.0377 263.1089 14.34218063475570
IRIDIUM 115             
1 42806U 17039D   26198.76282026  .00000177  00000+0  46706-4 0  9990
2 42806  86.4518 309.3115 0002286  99.3398 260.8062 14.43278399478671
IRIDIUM 118             
1 42807U 17039E   26198.87216434  .00000043  00000+0  83774-5 0  9992
2 42807  86.3994 340.8084 0002222  92.9334 267.2117 14.34217686474347
IRIDIUM 117             
1 42808U 17039F   26198.89119081  .00000070  00000+0  17928-4 0  9992
2 42808  86.3994 340.7575 0002159  94.1450 265.9993 14.34217677474374
IRIDIUM 126             
1 42809U 17039G   26198.91656180  .00000013  00000+0 -25984-5 0  9992
2 42809  86.3991 340.7990 0001974  92.7455 267.3967 14.34217552474353
IRIDIUM 124             
1 42810U 17039H   26198.48860446  .00000175  00000+0  46004-4 0  9991
2 42810  86.4481 277.6896 0002227  96.3030 263.8425 14.43274740479485
IRIDIUM 128             
1 42811U 17039J   26198.90730325  .00000072  00000+0  18672-4 0  9997
2 42811  86.3968  12.3026 0002260  93.8752 266.2702 14.34217373474382
IRIDIUM 121             
1 42812U 17039K   26198.93558992  .00000034  00000+0  50106-5 0  9996
2 42812  86.3995 340.8187 0002228  92.5747 267.5704 14.34217667474230
IRIDIUM 133             
1 42955U 17061A   26198.93901384  .00000064  00000+0  15733-4 0  9995
2 42955  86.3971  12.4079 0002209  91.0604 269.0845 14.34217619459186
IRIDIUM 100             
1 42956U 17061B   26198.93267238  .00000077  00000+0  20390-4 0  9998
2 42956  86.3969  12.3284 0002220  90.2828 269.8622 14.34217815459182
IRIDIUM 122             
1 42957U 17061C   26198.90095553  .00000048  00000+0  99573-5 0  9993
2 42957  86.3969  12.3421 0002133  91.4199 268.7241 14.34217425459185
IRIDIUM 129             
1 42958U 17061D   26198.92632706  .00000059  00000+0  14020-4 0  9998
2 42958  86.3970  12.3988 0002098  83.8670 276.2765 14.34217434459203
IRIDIUM 119             
1 42959U 17061E   26198.89461769  .00000067  00000+0  16713-4 0  9994
2 42959  86.3969  12.4078 0002111  91.2144 268.9293 14.34217212459217
IRIDIUM 107             
1 42960U 17061F   26198.91364222  .00000062  00000+0  15089-4 0  9995
2 42960  86.3970  12.4213 0002143  97.3903 262.7536 14.34217638459222
IRIDIUM 132             
1 42961U 17061G   26198.91998714  .00000083  00000+0  22407-4 0  9990
2 42961  86.3969  12.3980 0002187  91.2427 268.9019 14.34217258459225
IRIDIUM 136             
1 42962U 17061H   26198.88193165  .00000066  00000+0  16445-4 0  9990
2 42962  86.3970  12.4206 0002233  89.6246 270.5206 14.34217692459232
IRIDIUM 139             
1 42963U 17061J   26198.88827502  .00000092  00000+0  25898-4 0  9991
2 42963  86.3971  12.4804 0002261  92.3844 267.7611 14.34217801459245
IRIDIUM 125             
1 42964U 17061K   26198.94535726  .00000073  00000+0  18901-4 0  9999
2 42964  86.3973  12.5182 0001695  96.2940 263.8449 14.34217997459262
