OBJECT_NAME,OBJECT_ID,EPOCH,MEAN_MOTION,ECCENTRICITY,INCLINATION,RA_OF_ASC_NODE,ARG_OF_PERICENTER,MEAN_ANOMALY,EPHEMERIS_TYPE,CLASSIFICATION_TYPE,NORAD_CAT_ID,ELEMENT_SET_NO,REV_AT_EPOCH,BSTAR,MEAN_MOTION_DOT,MEAN_MOTION_DDOT
IRIDIUM 106,2017-003A,2026-07-17T15:41:54.296160,14.34217566,.00023091,86.3937,75.8164,93.4809,266.6651,0,U,41917,999,49757,.16618543E-4,.66E-6,0
IRIDIUM 103,2017-003B,2026-07-17T13:43:10.189344,14.34217616,.0001889,86.3936,75.7505,83.9410,276.2001,0,U,41918,999,49758,-.25547E-5,.13E-6,0
IRIDIUM 109,2017-003C,2026-07-17T13:52:18.221088,14.34217701,.0002137,86.3941,75.8073,85.3964,274.7476,0,U,41919,999,49755,.64505E-4,.2E-5,0
IRIDIUM 102,2017-003D,2026-07-17T18:08:02.079168,14.34219016,.00022246,86.3937,75.6566,84.8151,275.3299,0,U,41920,999,49766,.35511081E-4,.119E-5,0
IRIDIUM 105,2017-003E,2026-07-17T12:07:00.971904,14.34217265,.0002115,86.3942,44.1889,81.3447,278.7988,0,U,41921,999,49948,.17717E-4,.69E-6,0
IRIDIUM 104,2017-003F,2026-07-17T10:03:58.237920,14.34216891,.0002006,86.3938,75.8401,80.3633,279.7789,0,U,41922,999,49760,.21748E-4,.81E-6,0
IRIDIUM 114,2017-003G,2026-07-17T15:14:30.314112,14.34217565,.0002032,86.3939,75.7331,85.3537,274.7891,0,U,41923,999,49761,.14043E-4,.59E-6,0
IRIDIUM 108,2017-003H,2026-07-17T19:16:10.476192,14.34217663,.00022307,86.3936,43.9523,86.2207,273.9244,0,U,41924,999,49949,.4116974E-5,.31E-6,0
IRIDIUM 112,2017-003J,2026-07-17T09:54:50.268384,14.34216965,.0002181,86.3934,75.6664,84.5648,275.5797,0,U,41925,999,49760,.13396E-4,.57E-6,0
IRIDIUM 111,2017-003K,2026-07-17T04:35:10.207968,14.34218100,.0002165,86.3938,75.8308,86.2701,273.8742,0,U,41926,999,49755,.19346E-4,.74E-6,0
IRIDIUM 113,2017-039A,2026-07-17T19:10:31.166112,14.34217664,.00021358,86.3992,309.3849,92.7705,267.3735,0,U,42803,999,47557,.17777044E-4,.7E-6,0
IRIDIUM 123,2017-039B,2026-07-17T21:50:42.900864,14.34217305,.00020379,86.3990,340.7946,97.4874,262.6553,0,U,42804,999,47435,-.2846498E-5,.12E-6,0
IRIDIUM 120,2017-039C,2026-07-17T20:41:51.220896,14.34218063,.000238,86.3980,309.1368,97.0377,263.1089,0,U,42805,999,47557,.9524411E-5,.46E-6,0
IRIDIUM 115,2017-039D,2026-07-17T18:18:27.670464,14.43278399,.0002286,86.4518,309.3115,99.3398,260.8062,0,U,42806,999,47867,.46706355E-4,.177E-5,0
IRIDIUM 118,2017-039E,2026-07-17T20:55:54.998976,14.34217686,.00022221,86.3994,340.8084,92.9334,267.2117,0,U,42807,999,47434,.8377409E-5,.43E-6,0
IRIDIUM 117,2017-039F,2026-07-17T21:23:18.885984,14.34217677,.00021592,86.3994,340.7575,94.1450,265.9993,0,U,42808,999,47437,.17927766E-4,.7E-6,0
IRIDIUM 126,2017-039G,2026-07-17T21:59:50.939520,14.34217552,.00019744,86.3991,340.7990,92.7455,267.3967,0,U,42809,999,47435,-.2598414E-5,.13E-6,0
IRIDIUM 124,2017-039H,2026-07-17T11:43:35.425344,14.43274740,.0002227,86.4481,277.6896,96.3030,263.8425,0,U,42810,999,47948,.46004E-4,.175E-5,0
IRIDIUM 128,2017-039J,2026-07-17T21:46:31.000800,14.34217373,.00022605,86.3968,12.3026,93.8752,266.2702,0,U,42811,999,47438,.18671548E-4,.72E-6,0
IRIDIUM 121,2017-039K,2026-07-17T22:27:14.969088,14.34217667,.00022282,86.3995,340.8187,92.5747,267.5704,0,U,42812,999,47423,.5010634E-5,.34E-6,0
IRIDIUM 133,2017-061A,2026-07-17T22:32:10.795776,14.34217619,.00022093,86.3971,12.4079,91.0604,269.0845,0,U,42955,999,45918,.15733384E-4,.64E-6,0
IRIDIUM 100,2017-061B,2026-07-17T22:23:02.893632,14.34217815,.00022203,86.3969,12.3284,90.2828,269.8622,0,U,42956,999,45918,.20389524E-4,.77E-6,0
IRIDIUM 122,2017-061C,2026-07-17T21:37:22.557792,14.34217425,.00021335,86.3969,12.3421,91.4199,268.7241,0,U,42957,999,45918,.9957345E-5,.48E-6,0
IRIDIUM 129,2017-061D,2026-07-17T22:13:54.657984,14.34217434,.0002098,86.3970,12.3988,83.8670,276.2765,0,U,42958,999,45920,.14020019E-4,.59E-6,0
IRIDIUM 119,2017-061E,2026-07-17T21:28:14.968416,14.34217212,.00021115,86.3969,12.4078,91.2144,268.9293,0,U,42959,999,45921,.1671272E-4,.67E-6,0
IRIDIUM 107,2017-061F,2026-07-17T21:55:38.687808,14.34217638,.00021435,86.3970,12.4213,97.3903,262.7536,0,U,42960,999,45922,.15089165E-4,.62E-6,0
IRIDIUM 132,2017-061G,2026-07-17T22:04:46.888896,14.34217258,.00021871,86.3969,12.3980,91.2427,268.9019,0,U,42961,999,45922,.22406652E-4,.83E-6,0
IRIDIUM 136,2017-061H,2026-07-17T21:09:58.894560,14.34217692,.00022338,86.3970,12.4206,89.6246,270.5206,0,U,42962,999,45923,.16445208E-4,.66E-6,0
IRIDIUM 139,2017-061J,2026-07-17T21:19:06.961728,14.34217801,.00022615,86.3971,12.4804,92.3844,267.7611,0,U,42963,999,45924,.25898193E-4,.92E-6,0
IRIDIUM 125,2017-061K,2026-07-17T22:41:18.867264,14.34217997,.00016952,86.3973,12.5182,96.2940,263.8449,0,U,42964,999,45926,.18901029E-4,.73E-6,0
